CCSDS_OMM_VERS = 2.0
CREATION_DATE  = 
ORIGINATOR     = 

OBJECT_NAME    = COSMOS 2550
OBJECT_ID      = 2021-056A
CENTER_NAME    = EARTH
REF_FRAME      = TEME
TIME_SYSTEM    = UTC
MEAN_ELEMENT_THEORY = SGP/SGP4

EPOCH          = 2025-11-15T01:52:17.317344
MEAN_MOTION    = 15.33892593
ECCENTRICITY   = .00084027
INCLINATION    = 67.1441
RA_OF_ASC_NODE = 27.6043
ARG_OF_PERICENTER = 271.0442
MEAN_ANOMALY   = 88.9750

EPHEMERIS_TYPE = 0
CLASSIFICATION_TYPE = U
NORAD_CAT_ID   = 48865
ELEMENT_SET_NO = 999
REV_AT_EPOCH   = 24588
BSTAR          = .21318799E-4
MEAN_MOTION_DOT = .511E-5
MEAN_MOTION_DDOT = 0

CCSDS_OMM_VERS = 2.0
CREATION_DATE  = 
ORIGINATOR     = 

OBJECT_NAME    = CZ-2C R/B
OBJECT_ID      = 2022-058K
CENTER_NAME    = EARTH
REF_FRAME      = TEME
TIME_SYSTEM    = UTC
MEAN_ELEMENT_THEORY = SGP/SGP4

EPOCH          = 2025-11-16T08:00:58.993632
MEAN_MOTION    = 15.46719714
ECCENTRICITY   = .00483778
INCLINATION    = 50.1905
RA_OF_ASC_NODE = 178.0278
ARG_OF_PERICENTER = 88.9854
MEAN_ANOMALY   = 271.6656

EPHEMERIS_TYPE = 0
CLASSIFICATION_TYPE = U
NORAD_CAT_ID   = 52794
ELEMENT_SET_NO = 999
REV_AT_EPOCH   = 19254
BSTAR          = .67753539E-3
MEAN_MOTION_DOT = .35824E-3
MEAN_MOTION_DDOT = 0

CCSDS_OMM_VERS = 2.0
CREATION_DATE  = 
ORIGINATOR     = 

OBJECT_NAME    = GSLV R/B
OBJECT_ID      = 2022-138AN
CENTER_NAME    = EARTH
REF_FRAME      = TEME
TIME_SYSTEM    = UTC
MEAN_ELEMENT_THEORY = SGP/SGP4

EPOCH          = 2025-11-16T10:25:56.992224
MEAN_MOTION    = 14.95941758
ECCENTRICITY   = .00205987
INCLINATION    = 87.3856
RA_OF_ASC_NODE = 204.2784
ARG_OF_PERICENTER = 196.6418
MEAN_ANOMALY   = 163.4139

EPHEMERIS_TYPE = 0
CLASSIFICATION_TYPE = U
NORAD_CAT_ID   = 54149
ELEMENT_SET_NO = 999
REV_AT_EPOCH   = 16699
BSTAR          = .41811544E-3
MEAN_MOTION_DOT = .4727E-4
MEAN_MOTION_DDOT = 0

CCSDS_OMM_VERS = 2.0
CREATION_DATE  = 
ORIGINATOR     = 

OBJECT_NAME    = XRISM
OBJECT_ID      = 2023-137A
CENTER_NAME    = EARTH
REF_FRAME      = TEME
TIME_SYSTEM    = UTC
MEAN_ELEMENT_THEORY = SGP/SGP4

EPOCH          = 2025-11-15T23:58:54.816384
MEAN_MOTION    = 15.09964359
ECCENTRICITY   = .00079374
INCLINATION    = 31.0032
RA_OF_ASC_NODE = 298.1447
ARG_OF_PERICENTER = 333.1061
MEAN_ANOMALY   = 26.9166

EPHEMERIS_TYPE = 0
CLASSIFICATION_TYPE = U
NORAD_CAT_ID   = 57800
ELEMENT_SET_NO = 999
REV_AT_EPOCH   = 12058
BSTAR          = .51302232E-3
MEAN_MOTION_DOT = .8637E-4
MEAN_MOTION_DDOT = 0

CCSDS_OMM_VERS = 2.0
CREATION_DATE  = 
ORIGINATOR     = 

OBJECT_NAME    = ACS3
OBJECT_ID      = 2024-077B
CENTER_NAME    = EARTH
REF_FRAME      = TEME
TIME_SYSTEM    = UTC
MEAN_ELEMENT_THEORY = SGP/SGP4

EPOCH          = 2025-11-16T16:00:19.577664
MEAN_MOTION    = 13.83841079
ECCENTRICITY   = .0061102
INCLINATION    = 97.3037
RA_OF_ASC_NODE = 282.0700
ARG_OF_PERICENTER = 22.0857
MEAN_ANOMALY   = 338.2915

EPHEMERIS_TYPE = 0
CLASSIFICATION_TYPE = U
NORAD_CAT_ID   = 59588
ELEMENT_SET_NO = 999
REV_AT_EPOCH   = 7853
BSTAR          = .38133E-2
MEAN_MOTION_DOT = .4261E-4
MEAN_MOTION_DDOT = 0

