COSMOS 2550             
1 48865U 21056A   25319.07797821  .00000511  00000+0  21319-4 0  9992
2 48865  67.1441  27.6043 0008402 271.0442  88.9750 15.33892593245884
CZ-2C R/B               
1 52794U 22058K   25320.33401613  .00035824  00000+0  67754-3 0  9990
2 52794  50.1905 178.0278 0048377  88.9854 271.6656 15.46719714192542
GSLV R/B                
1 54149U 22138AN  25320.43468741  .00004727  00000+0  41812-3 0  9996
2 54149  87.3856 204.2784 0020598 196.6418 163.4139 14.95941758166999
XRISM                   
1 57800U 23137A   25319.99924556  .00008637  00000+0  51302-3 0  9992
2 57800  31.0032 298.1447 0007937 333.1061  26.9166 15.09964359120586
ACS3                    
1 59588U 24077B   25320.66689326  .00004261  00000+0  38133-2 0  9995
2 59588  97.3037 282.0700 0061102  22.0857 338.2915 13.83841079 78537
